{
  "type": "FeatureCollection",
  "features": [
    {
      "type": "Feature",
      "properties": {
        "norad_id": 35459,
        "name": "COSMOS 2251 DEB",
        "group": "cosmos-2251-debris",
        "lat": -30.01837712432774,
        "lon": 162.70397891271838,
        "alt_km": 782.2603817949439,
        "timestamp": "2025-12-20T18:51:32.109379+00:00",
        "meta_object_name": "COSMOS 2251 DEB",
        "meta_object_id": "1993-036ALD",
        "meta_epoch": "2025-12-20T05:38:34.126080",
        "meta_mean_motion": 14.37472303,
        "meta_eccentricity": 0.0016072,
        "meta_inclination": 73.869,
        "meta_ra_of_asc_node": 173.3531,
        "meta_arg_of_pericenter": 118.6909,
        "meta_mean_anomaly": 241.5862,
        "meta_ephemeris_type": 0,
        "meta_classification_type": "U",
        "meta_norad_cat_id": 35459,
        "meta_element_set_no": 999,
        "meta_rev_at_epoch": 58469,
        "meta_bstar": 0.00018325,
        "meta_mean_motion_dot": 5.22e-06,
        "meta_mean_motion_ddot": 0,
        "tle_line1": "1 35459U 93036ALD 25354.23511720  .00000522  00000+0  18325-3 0  9997",
        "tle_line2": "2 35459  73.8690 173.3531 0016072 118.6909 241.5862 14.37472303584698"
      },
      "geometry": {
        "type": "Point",
        "coordinates": [
          162.70397891271838,
          -30.01837712432774
        ]
      }
    },
    {
      "type": "Feature",
      "properties": {
        "norad_id": 35462,
        "name": "COSMOS 2251 DEB",
        "group": "cosmos-2251-debris",
        "lat": 22.62342624999301,
        "lon": 67.22109117249502,
        "alt_km": 833.8275851690969,
        "timestamp": "2025-12-20T18:51:32.109389+00:00",
        "meta_object_name": "COSMOS 2251 DEB",
        "meta_object_id": "1993-036ALG",
        "meta_epoch": "2025-12-19T10:12:24.458112",
        "meta_mean_motion": 14.29342636,
        "meta_eccentricity": 0.0086733,
        "meta_inclination": 74.0371,
        "meta_ra_of_asc_node": 256.5417,
        "meta_arg_of_pericenter": 290.2864,
        "meta_mean_anomaly": 68.8979,
        "meta_ephemeris_type": 0,
        "meta_classification_type": "U",
        "meta_norad_cat_id": 35462,
        "meta_element_set_no": 999,
        "meta_rev_at_epoch": 66476,
        "meta_bstar": 0.0010032,
        "meta_mean_motion_dot": 2.635e-05,
        "meta_mean_motion_ddot": 0,
        "tle_line1": "1 35462U 93036ALG 25353.42528308  .00002635  00000+0  10032-2 0  9994",
        "tle_line2": "2 35462  74.0371 256.5417 0086733 290.2864  68.8979 14.29342636664768"
      },
      "geometry": {
        "type": "Point",
        "coordinates": [
          67.22109117249502,
          22.62342624999301
        ]
      }
    },
    {
      "type": "Feature",
      "properties": {
        "norad_id": 35465,
        "name": "COSMOS 2251 DEB",
        "group": "cosmos-2251-debris",
        "lat": -64.81927663302389,
        "lon": 144.40066764779473,
        "alt_km": 721.9087277630852,
        "timestamp": "2025-12-20T18:51:32.109399+00:00",
        "meta_object_name": "COSMOS 2251 DEB",
        "meta_object_id": "1993-036ALK",
        "meta_epoch": "2025-12-17T13:03:02.562624",
        "meta_mean_motion": 14.44331537,
        "meta_eccentricity": 0.00642719,
        "meta_inclination": 73.9967,
        "meta_ra_of_asc_node": 188.0661,
        "meta_arg_of_pericenter": 347.2721,
        "meta_mean_anomaly": 12.6809,
        "meta_ephemeris_type": 0,
        "meta_classification_type": "U",
        "meta_norad_cat_id": 35465,
        "meta_element_set_no": 999,
        "meta_rev_at_epoch": 87311,
        "meta_bstar": 0.00028334394,
        "meta_mean_motion_dot": 9.72e-06,
        "meta_mean_motion_ddot": 0,
        "tle_line1": "1 35465U 93036ALK 25351.54377966  .00000972  00000+0  28334-3 0  9997",
        "tle_line2": "2 35465  73.9967 188.0661 0064271 347.2721  12.6809 14.44331537873113"
      },
      "geometry": {
        "type": "Point",
        "coordinates": [
          144.40066764779473,
          -64.81927663302389
        ]
      }
    },
    {
      "type": "Feature",
      "properties": {
        "norad_id": 35469,
        "name": "COSMOS 2251 DEB",
        "group": "cosmos-2251-debris",
        "lat": -67.41503904961317,
        "lon": -34.80998861423864,
        "alt_km": 763.287424539466,
        "timestamp": "2025-12-20T18:51:32.109409+00:00",
        "meta_object_name": "COSMOS 2251 DEB",
        "meta_object_id": "1993-036ALP",
        "meta_epoch": "2025-12-20T07:36:40.266144",
        "meta_mean_motion": 14.4982565,
        "meta_eccentricity": 0.00765645,
        "meta_inclination": 74.0168,
        "meta_ra_of_asc_node": 9.6263,
        "meta_arg_of_pericenter": 163.1432,
        "meta_mean_anomaly": 197.23,
        "meta_ephemeris_type": 0,
        "meta_classification_type": "U",
        "meta_norad_cat_id": 35469,
        "meta_element_set_no": 999,
        "meta_rev_at_epoch": 88221,
        "meta_bstar": 6.7527967e-05,
        "meta_mean_motion_dot": 2.41e-06,
        "meta_mean_motion_ddot": 0,
        "tle_line1": "1 35469U 93036ALP 25354.31713271  .00000241  00000+0  67528-4 0  9990",
        "tle_line2": "2 35469  74.0168   9.6263 0076564 163.1432 197.2300 14.49825650882216"
      },
      "geometry": {
        "type": "Point",
        "coordinates": [
          -34.80998861423864,
          -67.41503904961317
        ]
      }
    },
    {
      "type": "Feature",
      "properties": {
        "norad_id": 35475,
        "name": "COSMOS 2251 DEB",
        "group": "cosmos-2251-debris",
        "lat": -2.601928260320486,
        "lon": 149.2703834558882,
        "alt_km": 674.456863779742,
        "timestamp": "2025-12-20T18:51:32.109419+00:00",
        "meta_object_name": "COSMOS 2251 DEB",
        "meta_object_id": "1993-036ALV",
        "meta_epoch": "2025-12-20T04:10:12.186624",
        "meta_mean_motion": 14.69875936,
        "meta_eccentricity": 0.00202744,
        "meta_inclination": 74.0213,
        "meta_ra_of_asc_node": 151.2034,
        "meta_arg_of_pericenter": 223.9843,
        "meta_mean_anomaly": 135.9716,
        "meta_ephemeris_type": 0,
        "meta_classification_type": "U",
        "meta_norad_cat_id": 35475,
        "meta_element_set_no": 999,
        "meta_rev_at_epoch": 65726,
        "meta_bstar": 0.0012274408,
        "meta_mean_motion_dot": 7.339e-05,
        "meta_mean_motion_ddot": 0,
        "tle_line1": "1 35475U 93036ALV 25354.17375216  .00007339  00000+0  12274-2 0  9995",
        "tle_line2": "2 35475  74.0213 151.2034 0020274 223.9843 135.9716 14.69875936657261"
      },
      "geometry": {
        "type": "Point",
        "coordinates": [
          149.2703834558882,
          -2.601928260320486
        ]
      }
    },
    {
      "type": "Feature",
      "properties": {
        "norad_id": 35476,
        "name": "COSMOS 2251 DEB",
        "group": "cosmos-2251-debris",
        "lat": 14.679612691562609,
        "lon": 49.434198778544136,
        "alt_km": 630.5156763089117,
        "timestamp": "2025-12-20T18:51:32.109429+00:00",
        "meta_object_name": "COSMOS 2251 DEB",
        "meta_object_id": "1993-036ALW",
        "meta_epoch": "2025-12-20T04:26:15.503424",
        "meta_mean_motion": 14.75816221,
        "meta_eccentricity": 0.0018084,
        "meta_inclination": 73.9779,
        "meta_ra_of_asc_node": 46.2965,
        "meta_arg_of_pericenter": 24.5417,
        "meta_mean_anomaly": 39.7285,
        "meta_ephemeris_type": 0,
        "meta_classification_type": "U",
        "meta_norad_cat_id": 35476,
        "meta_element_set_no": 999,
        "meta_rev_at_epoch": 87997,
        "meta_bstar": 0.00092006008,
        "meta_mean_motion_dot": 6.297e-05,
        "meta_mean_motion_ddot": 0,
        "tle_line1": "1 35476U 93036ALW 25354.18490166  .00006297  00000+0  92006-3 0  9993",
        "tle_line2": "2 35476  73.9779  46.2965 0018084  24.5417  39.7285 14.75816221879976"
      },
      "geometry": {
        "type": "Point",
        "coordinates": [
          49.434198778544136,
          14.679612691562609
        ]
      }
    },
    {
      "type": "Feature",
      "properties": {
        "norad_id": 35580,
        "name": "COSMOS 2251 DEB",
        "group": "cosmos-2251-debris",
        "lat": -22.121492624270857,
        "lon": 158.29885664157914,
        "alt_km": 1156.3121845821834,
        "timestamp": "2025-12-20T18:51:32.109439+00:00",
        "meta_object_name": "COSMOS 2251 DEB",
        "meta_object_id": "1993-036ALX",
        "meta_epoch": "2025-12-20T05:05:49.812576",
        "meta_mean_motion": 13.83906567,
        "meta_eccentricity": 0.028085,
        "meta_inclination": 73.9006,
        "meta_ra_of_asc_node": 166.0156,
        "meta_arg_of_pericenter": 169.8095,
        "meta_mean_anomaly": 190.8895,
        "meta_ephemeris_type": 0,
        "meta_classification_type": "U",
        "meta_norad_cat_id": 35580,
        "meta_element_set_no": 999,
        "meta_rev_at_epoch": 62360,
        "meta_bstar": 0.0014818,
        "meta_mean_motion_dot": 2.208e-05,
        "meta_mean_motion_ddot": 0,
        "tle_line1": "1 35580U 93036ALX 25354.21238209  .00002208  00000+0  14818-2 0  9993",
        "tle_line2": "2 35580  73.9006 166.0156 0280850 169.8095 190.8895 13.83906567623609"
      },
      "geometry": {
        "type": "Point",
        "coordinates": [
          158.29885664157914,
          -22.121492624270857
        ]
      }
    }
  ]
}